[{"OBJECT_NAME":"STARLINK-6270","OBJECT_ID":"2023-061AZ","EPOCH":"2026-03-26T08:03:45.947808","MEAN_MOTION":15.02530361,"ECCENTRICITY":0.0001114,"INCLINATION":43.0037,"RA_OF_ASC_NODE":81.4378,"ARG_OF_PERICENTER":264.0897,"MEAN_ANOMALY":95.9818,"EPHEMERIS_TYPE":0,"CLASSIFICATION_TYPE":"U","NORAD_CAT_ID":56421,"ELEMENT_SET_NO":999,"REV_AT_EPOCH":15955,"BSTAR":-4.9726e-5,"MEAN_MOTION_DOT":-8.75e-6,"MEAN_MOTION_DDOT":0},{"OBJECT_NAME":"STARLINK-6236","OBJECT_ID":"2023-061BA","EPOCH":"2026-03-25T23:26:45.692736","MEAN_MOTION":15.02537083,"ECCENTRICITY":0.00012559,"INCLINATION":43.0038,"RA_OF_ASC_NODE":83.0478,"ARG_OF_PERICENTER":270.2358,"MEAN_ANOMALY":89.8341,"EPHEMERIS_TYPE":0,"CLASSIFICATION_TYPE":"U","NORAD_CAT_ID":56422,"ELEMENT_SET_NO":999,"REV_AT_EPOCH":15950,"BSTAR":6.5713125e-5,"MEAN_MOTION_DOT":6.84e-6,"MEAN_MOTION_DDOT":0},{"OBJECT_NAME":"STARLINK-6239","OBJECT_ID":"2023-061BB","EPOCH":"2026-03-26T10:41:39.140160","MEAN_MOTION":15.02537623,"ECCENTRICITY":0.0001045,"INCLINATION":43.0038,"RA_OF_ASC_NODE":80.5416,"ARG_OF_PERICENTER":275.95,"MEAN_ANOMALY":84.1224,"EPHEMERIS_TYPE":0,"CLASSIFICATION_TYPE":"U","NORAD_CAT_ID":56423,"ELEMENT_SET_NO":999,"REV_AT_EPOCH":15957,"BSTAR":6.5896e-5,"MEAN_MOTION_DOT":6.87e-6,"MEAN_MOTION_DDOT":0},{"OBJECT_NAME":"STARLINK-6242","OBJECT_ID":"2023-061BC","EPOCH":"2026-03-26T08:51:32.300640","MEAN_MOTION":15.02539594,"ECCENTRICITY":0.0001167,"INCLINATION":43.0041,"RA_OF_ASC_NODE":80.8275,"ARG_OF_PERICENTER":273.1786,"MEAN_ANOMALY":86.8923,"EPHEMERIS_TYPE":0,"CLASSIFICATION_TYPE":"U","NORAD_CAT_ID":56424,"ELEMENT_SET_NO":999,"REV_AT_EPOCH":15956,"BSTAR":7.8949e-5,"MEAN_MOTION_DOT":8.63e-6,"MEAN_MOTION_DDOT":0},{"OBJECT_NAME":"STARLINK-6224","OBJECT_ID":"2023-061BD","EPOCH":"2026-03-26T08:56:20.773824","MEAN_MOTION":15.02532251,"ECCENTRICITY":0.0001189,"INCLINATION":43.0044,"RA_OF_ASC_NODE":80.854,"ARG_OF_PERICENTER":278.4134,"MEAN_ANOMALY":81.6573,"EPHEMERIS_TYPE":0,"CLASSIFICATION_TYPE":"U","NORAD_CAT_ID":56425,"ELEMENT_SET_NO":999,"REV_AT_EPOCH":15956,"BSTAR":7.7722e-5,"MEAN_MOTION_DOT":8.46e-6,"MEAN_MOTION_DDOT":0},{"OBJECT_NAME":"STARLINK-5352","OBJECT_ID":"2023-061BE","EPOCH":"2026-03-26T11:34:23.398464","MEAN_MOTION":15.02539518,"ECCENTRICITY":0.0001298,"INCLINATION":43.0034,"RA_OF_ASC_NODE":80.8024,"ARG_OF_PERICENTER":277.1349,"MEAN_ANOMALY":82.9346,"EPHEMERIS_TYPE":0,"CLASSIFICATION_TYPE":"U","NORAD_CAT_ID":56426,"ELEMENT_SET_NO":999,"REV_AT_EPOCH":15957,"BSTAR":3.7942e-5,"MEAN_MOTION_DOT":3.09e-6,"MEAN_MOTION_DDOT":0},{"OBJECT_NAME":"STARLINK-5724","OBJECT_ID":"2023-061BF","EPOCH":"2026-03-26T09:44:16.994400","MEAN_MOTION":15.02541128,"ECCENTRICITY":0.0001278,"INCLINATION":43.0042,"RA_OF_ASC_NODE":81.0926,"ARG_OF_PERICENTER":267.9471,"MEAN_ANOMALY":92.1225,"EPHEMERIS_TYPE":0,"CLASSIFICATION_TYPE":"U","NORAD_CAT_ID":56427,"ELEMENT_SET_NO":999,"REV_AT_EPOCH":15956,"BSTAR":6.0078e-5,"MEAN_MOTION_DOT":6.08e-6,"MEAN_MOTION_DDOT":0},{"OBJECT_NAME":"STARLINK-6238","OBJECT_ID":"2023-061BG","EPOCH":"2026-03-26T08:41:57.773472","MEAN_MOTION":15.02531015,"ECCENTRICITY":0.0001192,"INCLINATION":43.0045,"RA_OF_ASC_NODE":80.7781,"ARG_OF_PERICENTER":279.0139,"MEAN_ANOMALY":81.0569,"EPHEMERIS_TYPE":0,"CLASSIFICATION_TYPE":"U","NORAD_CAT_ID":56428,"ELEMENT_SET_NO":999,"REV_AT_EPOCH":15956,"BSTAR":7.5406e-5,"MEAN_MOTION_DOT":8.15e-6,"MEAN_MOTION_DDOT":0},{"OBJECT_NAME":"STARLINK-6264","OBJECT_ID":"2023-061BH","EPOCH":"2026-03-26T08:37:09.340896","MEAN_MOTION":15.02536182,"ECCENTRICITY":0.0001277,"INCLINATION":43.004,"RA_OF_ASC_NODE":80.7522,"ARG_OF_PERICENTER":270.2338,"MEAN_ANOMALY":89.8358,"EPHEMERIS_TYPE":0,"CLASSIFICATION_TYPE":"U","NORAD_CAT_ID":56429,"ELEMENT_SET_NO":999,"REV_AT_EPOCH":15956,"BSTAR":0.00010553,"MEAN_MOTION_DOT":1.222e-5,"MEAN_MOTION_DDOT":0},{"OBJECT_NAME":"STARLINK-5990","OBJECT_ID":"2023-064A","EPOCH":"2026-03-26T12:00:01.999296","MEAN_MOTION":14.98320723,"ECCENTRICITY":0.0003318,"INCLINATION":70.0004,"RA_OF_ASC_NODE":102.1457,"ARG_OF_PERICENTER":274.4987,"MEAN_ANOMALY":38.3261,"EPHEMERIS_TYPE":0,"CLASSIFICATION_TYPE":"U","NORAD_CAT_ID":56448,"ELEMENT_SET_NO":999,"REV_AT_EPOCH":579,"BSTAR":0.0026366,"MEAN_MOTION_DOT":0.00031502,"MEAN_MOTION_DDOT":0},{"OBJECT_NAME":"STARLINK-5993","OBJECT_ID":"2023-064B","EPOCH":"2026-03-26T11:06:21.085056","MEAN_MOTION":14.98325021,"ECCENTRICITY":0.0002968,"INCLINATION":69.9985,"RA_OF_ASC_NODE":102.3638,"ARG_OF_PERICENTER":269.4894,"MEAN_ANOMALY":90.5924,"EPHEMERIS_TYPE":0,"CLASSIFICATION_TYPE":"U","NORAD_CAT_ID":56449,"ELEMENT_SET_NO":999,"REV_AT_EPOCH":15775,"BSTAR":6.3626e-5,"MEAN_MOTION_DOT":6.66e-6,"MEAN_MOTION_DDOT":0},{"OBJECT_NAME":"STARLINK-5970","OBJECT_ID":"2023-064C","EPOCH":"2026-03-26T10:30:29.901312","MEAN_MOTION":14.9833363,"ECCENTRICITY":0.0003167,"INCLINATION":69.9987,"RA_OF_ASC_NODE":102.2782,"ARG_OF_PERICENTER":271.6844,"MEAN_ANOMALY":88.3952,"EPHEMERIS_TYPE":0,"CLASSIFICATION_TYPE":"U","NORAD_CAT_ID":56450,"ELEMENT_SET_NO":999,"REV_AT_EPOCH":15775,"BSTAR":0.00012193,"MEAN_MOTION_DOT":1.362e-5,"MEAN_MOTION_DDOT":0},{"OBJECT_NAME":"STARLINK-5985","OBJECT_ID":"2023-064D","EPOCH":"2026-03-26T11:00:19.406016","MEAN_MOTION":14.9831673,"ECCENTRICITY":0.0003344,"INCLINATION":69.9991,"RA_OF_ASC_NODE":102.3493,"ARG_OF_PERICENTER":271.2552,"MEAN_ANOMALY":88.8224,"EPHEMERIS_TYPE":0,"CLASSIFICATION_TYPE":"U","NORAD_CAT_ID":56451,"ELEMENT_SET_NO":999,"REV_AT_EPOCH":15775,"BSTAR":7.7065e-5,"MEAN_MOTION_DOT":8.26e-6,"MEAN_MOTION_DDOT":0},{"OBJECT_NAME":"STARLINK-5986","OBJECT_ID":"2023-064E","EPOCH":"2026-03-26T09:18:10.291104","MEAN_MOTION":14.98320606,"ECCENTRICITY":0.0003057,"INCLINATION":69.999,"RA_OF_ASC_NODE":102.5032,"ARG_OF_PERICENTER":270.852,"MEAN_ANOMALY":89.2288,"EPHEMERIS_TYPE":0,"CLASSIFICATION_TYPE":"U","NORAD_CAT_ID":56452,"ELEMENT_SET_NO":999,"REV_AT_EPOCH":15774,"BSTAR":2.3538e-5,"MEAN_MOTION_DOT":1.88e-6,"MEAN_MOTION_DDOT":0},{"OBJECT_NAME":"STARLINK-5935","OBJECT_ID":"2023-064F","EPOCH":"2026-03-26T10:48:20.068992","MEAN_MOTION":14.98285291,"ECCENTRICITY":0.0002098,"INCLINATION":70.0012,"RA_OF_ASC_NODE":102.3207,"ARG_OF_PERICENTER":267.4473,"MEAN_ANOMALY":92.6446,"EPHEMERIS_TYPE":0,"CLASSIFICATION_TYPE":"U","NORAD_CAT_ID":56453,"ELEMENT_SET_NO":999,"REV_AT_EPOCH":15775,"BSTAR":0.00024855,"MEAN_MOTION_DOT":2.871e-5,"MEAN_MOTION_DDOT":0},{"OBJECT_NAME":"STARLINK-5959","OBJECT_ID":"2023-064G","EPOCH":"2026-03-26T11:54:22.438656","MEAN_MOTION":14.98342223,"ECCENTRICITY":0.0003422,"INCLINATION":69.9983,"RA_OF_ASC_NODE":102.0775,"ARG_OF_PERICENTER":265.0127,"MEAN_ANOMALY":95.0642,"EPHEMERIS_TYPE":0,"CLASSIFICATION_TYPE":"U","NORAD_CAT_ID":56454,"ELEMENT_SET_NO":999,"REV_AT_EPOCH":15776,"BSTAR":2.2976e-5,"MEAN_MOTION_DOT":1.81e-6,"MEAN_MOTION_DDOT":0},{"OBJECT_NAME":"STARLINK-5987","OBJECT_ID":"2023-064H","EPOCH":"2026-03-26T10:12:13.688352","MEAN_MOTION":14.98330063,"ECCENTRICITY":0.0003613,"INCLINATION":69.9984,"RA_OF_ASC_NODE":102.2304,"ARG_OF_PERICENTER":268.7859,"MEAN_ANOMALY":91.2886,"EPHEMERIS_TYPE":0,"CLASSIFICATION_TYPE":"U","NORAD_CAT_ID":56455,"ELEMENT_SET_NO":999,"REV_AT_EPOCH":15775,"BSTAR":-9.8892e-5,"MEAN_MOTION_DOT":-1.273e-5,"MEAN_MOTION_DDOT":0}]
