STARLINK-6270           
1 56421U 23061AZ  26085.33594847 -.00000875  00000+0 -49726-4 0  9997
2 56421  43.0037  81.4378 0001114 264.0897  95.9818 15.02530361159552
STARLINK-6236           
1 56422U 23061BA  26084.97691774  .00000684  00000+0  65713-4 0  9994
2 56422  43.0038  83.0478 0001255 270.2358  89.8341 15.02537083159506
STARLINK-6239           
1 56423U 23061BB  26085.44559190  .00000687  00000+0  65896-4 0  9998
2 56423  43.0038  80.5416 0001045 275.9500  84.1224 15.02537623159574
STARLINK-6242           
1 56424U 23061BC  26085.36912385  .00000863  00000+0  78949-4 0  9998
2 56424  43.0041  80.8275 0001167 273.1786  86.8923 15.02539594159569
STARLINK-6224           
1 56425U 23061BD  26085.37246266  .00000846  00000+0  77722-4 0  9997
2 56425  43.0044  80.8540 0001189 278.4134  81.6573 15.02532251159564
STARLINK-5352           
1 56426U 23061BE  26085.48221526  .00000309  00000+0  37942-4 0  9996
2 56426  43.0034  80.8024 0001298 277.1349  82.9346 15.02539518159572
STARLINK-5724           
1 56427U 23061BF  26085.40575225  .00000608  00000+0  60078-4 0  9995
2 56427  43.0042  81.0926 0001278 267.9471  92.1225 15.02541128159565
STARLINK-6238           
1 56428U 23061BG  26085.36247423  .00000815  00000+0  75406-4 0  9998
2 56428  43.0045  80.7781 0001192 279.0139  81.0569 15.02531015159566
STARLINK-6264           
1 56429U 23061BH  26085.35913589  .00001222  00000+0  10553-3 0  9995
2 56429  43.0040  80.7522 0001277 270.2338  89.8358 15.02536182159565
STARLINK-5990           
1 56448U 23064A   26085.50002314  .00031502  00000+0  26366-2 0  9993
2 56448  70.0004 102.1457 0003318 274.4987  38.3261 14.98320723  5799
STARLINK-5993           
1 56449U 23064B   26085.46274404  .00000666  00000+0  63626-4 0  9999
2 56449  69.9985 102.3638 0002968 269.4894  90.5924 14.98325021157755
STARLINK-5970           
1 56450U 23064C   26085.43784608  .00001362  00000+0  12193-3 0  9996
2 56450  69.9987 102.2782 0003167 271.6844  88.3952 14.98333630157751
STARLINK-5985           
1 56451U 23064D   26085.45855794  .00000826  00000+0  77065-4 0  9998
2 56451  69.9991 102.3493 0003344 271.2552  88.8224 14.98316730157755
STARLINK-5986           
1 56452U 23064E   26085.38761911  .00000188  00000+0  23538-4 0  9995
2 56452  69.9990 102.5032 0003057 270.8520  89.2288 14.98320606157748
STARLINK-5935           
1 56453U 23064F   26085.45023228  .00002871  00000+0  24855-3 0  9999
2 56453  70.0012 102.3207 0002098 267.4473  92.6446 14.98285291157757
STARLINK-5959           
1 56454U 23064G   26085.49609304  .00000181  00000+0  22976-4 0  9994
2 56454  69.9983 102.0775 0003422 265.0127  95.0642 14.98342223157766
STARLINK-5987           
1 56455U 23064H   26085.42515843 -.00001273  00000+0 -98892-4 0  9997
2 56455  69.9984 102.2304 0003613 268.7859  91.2886 14.98330063157758
